{
  "norad_id": 64879,
  "name": "GEOSCAN 6 (RS92S6)",
  "history": [
    {
      "epoch": "2026-03-28T21:36:03.975264Z",
      "apogee_km": 487.44368013664734,
      "perigee_km": 473.37049635109815,
      "latitude_deg": -4.686003907043454e-05,
      "longitude_deg": -94.05691926208128,
      "height_km": 484.6116557610659,
      "semi_major_axis_km": 6858.5440882438725,
      "eccentricity": 0.00102596,
      "inclination_deg": 97.4486,
      "raan_deg": 56.2735,
      "arg_perigee_deg": 99.2063,
      "mean_anomaly_deg": 261.0337,
      "mean_motion_rev_day": 15.28462753
    },
    {
      "epoch": "2026-03-29T03:53:09.387744Z",
      "apogee_km": 487.4057643047099,
      "perigee_km": 473.34444279001764,
      "latitude_deg": -4.851140487044112e-05,
      "longitude_deg": 171.67431991998106,
      "height_km": 484.5016526593597,
      "semi_major_axis_km": 6858.512103547364,
      "eccentricity": 0.0010251,
      "inclination_deg": 97.4485,
      "raan_deg": 56.5354,
      "arg_perigee_deg": 98.5708,
      "mean_anomaly_deg": 261.6693,
      "mean_motion_rev_day": 15.28473445
    },
    {
      "epoch": "2026-03-30T03:27:13.587264Z",
      "apogee_km": 487.29914425133575,
      "perigee_km": 473.266816971005,
      "latitude_deg": -9.350009598540452e-05,
      "longitude_deg": 178.17123184473428,
      "height_km": 484.07939041764627,
      "semi_major_axis_km": 6858.41998061117,
      "eccentricity": 0.001023,
      "inclination_deg": 97.4486,
      "raan_deg": 57.5177,
      "arg_perigee_deg": 95.8719,
      "mean_anomaly_deg": 264.3686,
      "mean_motion_rev_day": 15.28504241
    },
    {
      "epoch": "2026-03-30T05:01:29.815104Z",
      "apogee_km": 487.2964495384822,
      "perigee_km": 473.26138720312883,
      "latitude_deg": -4.791788007821449e-05,
      "longitude_deg": 154.6044841541117,
      "height_km": 484.056467966312,
      "semi_major_axis_km": 6858.415918370805,
      "eccentricity": 0.0010232,
      "inclination_deg": 97.4486,
      "raan_deg": 57.5831,
      "arg_perigee_deg": 95.7162,
      "mean_anomaly_deg": 264.5244,
      "mean_motion_rev_day": 15.28505599
    },
    {
      "epoch": "2026-03-30T14:27:06.927264Z",
      "apogee_km": 487.2503176664741,
      "perigee_km": 473.2179531560005,
      "latitude_deg": 9.12055639182002e-05,
      "longitude_deg": 13.205580388347581,
      "height_km": 483.889432728261,
      "semi_major_axis_km": 6858.371135411237,
      "eccentricity": 0.00102301,
      "inclination_deg": 97.4487,
      "raan_deg": 57.976,
      "arg_perigee_deg": 94.7155,
      "mean_anomaly_deg": 265.5254,
      "mean_motion_rev_day": 15.2852057
    },
    {
      "epoch": "2026-03-30T22:18:27.628416Z",
      "apogee_km": 487.21778750386875,
      "perigee_km": 473.17987139471825,
      "latitude_deg": 9.68053924823154e-06,
      "longitude_deg": -104.625787635221,
      "height_km": 483.7429772547441,
      "semi_major_axis_km": 6858.335829449293,
      "eccentricity": 0.00102342,
      "inclination_deg": 97.4488,
      "raan_deg": 58.3035,
      "arg_perigee_deg": 93.8041,
      "mean_anomaly_deg": 266.4369,
      "mean_motion_rev_day": 15.28532373
    }
  ]
}